NORAD_CAT_ID,OBJECT_NAME,OBJECT_TYPE,EPOCH,MEAN_MOTION,ECCENTRICITY,INCLINATION,RA_OF_ASC_NODE,ARG_OF_PERICENTER,MEAN_ANOMALY,BSTAR,MEAN_MOTION_DOT,MEAN_MOTION_DDOT,TLE_LINE0,TLE_LINE1,TLE_LINE2,SEMIMAJOR_AXIS,PERIOD,APOGEE,PERIGEE,DECAYED
51131.0,STARLINK-3388,PAYLOAD,2023-10-18 10:18:27,15.0887547,0.0001328,53.2164,259.3406,116.6129,243.4999,0.00096675,0.00015146,0.0,0 STARLINK-3388,1 51131U 22005AD  23291.42949074  .00015146  00000-0  96675-3 0  9999,2 51131  53.2164 259.3406 0001328 116.6129 243.4999 15.08875470 98016,6917.772,95.435,540.556,538.718,0.0
51131.0,STARLINK-3388,PAYLOAD,2023-10-18 15:04:38,15.08843648,0.0001351,53.2161,258.4483,85.4455,274.6691,-7.6355e-05,-1.503e-05,0.0,0 STARLINK-3388,1 51131U 22005AD  23291.62821801 -.00001503  00000-0 -76355-4 0  9996,2 51131  53.2161 258.4483 0001351  85.4455 274.6691 15.08843648 98049,6917.869,95.437,540.669,538.8,0.0
51131.0,STARLINK-3388,PAYLOAD,2023-10-18 21:26:10,15.08844927,0.00015,53.2153,257.2598,86.8317,273.2847,0.00015933,2.249e-05,0.0,0 STARLINK-3388,1 51131U 22005AD  23291.89317856  .00002249  00000-0  15933-3 0  9995,2 51131  53.2153 257.2598 0001500  86.8317 273.2847 15.08844927 96960,6917.865,95.437,540.768,538.693,0.0
51131.0,STARLINK-3388,PAYLOAD,2023-10-19 06:58:29,15.08848961,0.0001408,53.2154,255.4738,88.2263,271.889,0.00043245,6.603e-05,0.0,0 STARLINK-3388,1 51131U 22005AD  23292.29061934  .00006603  00000-0  43245-3 0  9998,2 51131  53.2154 255.4738 0001408  88.2263 271.8890 15.08848961 97022,6917.853,95.437,540.692,538.744,0.0
51131.0,STARLINK-3388,PAYLOAD,2023-10-19 21:16:57,15.08840718,0.0001551,53.2153,252.7981,111.7621,248.3536,0.00053925,8.305e-05,0.0,0 STARLINK-3388,1 51131U 22005AD  23292.88678225  .00008305  00000-0  53925-3 0  9997,2 51131  53.2153 252.7981 0001551 111.7621 248.3536 15.08840718 98232,6917.878,95.438,540.816,538.67,0.0
51131.0,STARLINK-3388,PAYLOAD,2023-10-20 03:38:30,15.08841368,0.0001549,53.2149,251.6088,103.304,256.8125,0.00016405,2.324e-05,0.0,0 STARLINK-3388,1 51131U 22005AD  23293.15174173  .00002324  00000-0  16405-3 0  9998,2 51131  53.2149 251.6088 0001549 103.3040 256.8125 15.08841368 97152,6917.876,95.437,540.813,538.67,0.0
51131.0,STARLINK-3388,PAYLOAD,2023-10-21 01:53:55,15.08833158,0.0001602,53.216,247.4464,105.4352,254.6817,0.00010787,1.429e-05,0.0,0 STARLINK-3388,1 51131U 22005AD  23294.07911052  .00001429  00000-0  10787-3 0  9997,2 51131  53.2160 247.4464 0001602 105.4352 254.6817 15.08833158 98417,6917.901,95.438,540.875,538.658,0.0
51131.0,STARLINK-3388,PAYLOAD,2023-10-21 03:29:18,15.08833712,0.0001418,53.2156,247.1491,105.5462,254.5686,0.00011908,1.607e-05,0.0,0 STARLINK-3388,1 51131U 22005AD  23294.14535028  .00001607  00000-0  11908-3 0  9994,2 51131  53.2156 247.1491 0001418 105.5462 254.5686 15.08833712 97303,6917.9,95.438,540.746,538.784,0.0
51131.0,STARLINK-3388,PAYLOAD,2023-10-21 20:58:31,15.08857125,0.0001125,53.2147,243.873,123.6673,236.4427,-0.00011554,-2.127e-05,0.0,0 STARLINK-3388,1 51131U 22005AD  23294.87397902 -.00002127  00000-0 -11554-3 0  9998,2 51131  53.2147 243.8730 0001125 123.6673 236.4427 15.08857125 98534,6917.828,95.436,540.471,538.915,0.0
51131.0,STARLINK-3388,PAYLOAD,2023-10-22 03:20:04,15.08861703,0.0001377,53.2155,242.6876,89.5076,270.6074,0.00052695,8.113e-05,0.0,0 STARLINK-3388,1 51131U 22005AD  23295.13894094  .00008113  00000-0  52695-3 0  9992,2 51131  53.2155 242.6876 0001377  89.5076 270.6074 15.08861703 97452,6917.814,95.436,540.632,538.726,0.0
51131.0,STARLINK-3388,PAYLOAD,2023-10-23 03:10:52,15.08837522,0.0001401,53.216,238.2272,103.1793,256.9355,-4.7006e-06,-3.63e-06,0.0,0 STARLINK-3388,1 51131U 22005AD  23296.13254889 -.00000363  00000-0 -47006-5 0  9998,2 51131  53.2160 238.2272 0001401 103.1793 256.9355 15.08837522 98728,6917.888,95.438,540.722,538.784,0.0
51131.0,STARLINK-3388,PAYLOAD,2023-10-24 04:37:02,15.08844129,0.0001358,53.2156,233.4694,106.2418,253.8724,0.00040584,6.178e-05,0.0,0 STARLINK-3388,1 51131U 22005AD  23297.19239343  .00006178  00000-0  40584-3 0  9993,2 51131  53.2156 233.4694 0001358 106.2418 253.8724 15.08844129 98881,6917.868,95.437,540.672,538.793,0.0
51131.0,STARLINK-3388,PAYLOAD,2023-10-24 12:33:58,15.08839452,0.0001365,53.2153,231.9826,105.6164,254.4979,0.00069759,0.00010831,0.0,0 STARLINK-3388,1 51131U 22005AD  23297.52359672  .00010831  00000-0  69759-3 0  9994,2 51131  53.2153 231.9826 0001365 105.6164 254.4979 15.08839452 97811,6917.882,95.438,540.691,538.803,0.0
51131.0,STARLINK-3388,PAYLOAD,2023-10-25 06:03:12,15.08849114,0.000144,53.2159,228.7119,104.1871,255.9281,0.00037642,5.709e-05,0.0,0 STARLINK-3388,1 51131U 22005AD  23298.25223318  .00005709  00000-0  37642-3 0  9996,2 51131  53.2159 228.7119 0001440 104.1871 255.9281 15.08849114 99044,6917.853,95.437,540.714,538.721,0.0
51131.0,STARLINK-3388,PAYLOAD,2023-10-26 04:18:36,15.08852591,0.000134,53.2156,224.547,96.9668,263.1476,0.00024632,3.636e-05,0.0,0 STARLINK-3388,1 51131U 22005AD  23299.17959047  .00003636  00000-0  24632-3 0  9995,2 51131  53.2156 224.5470 0001340  96.9668 263.1476 15.08852591 99181,6917.842,95.437,540.634,538.78,0.0
51131.0,STARLINK-3388,PAYLOAD,2023-10-27 12:06:19,15.08836902,0.0002033,53.2162,218.6008,83.5279,276.5944,-4.3254e-05,-9.77e-06,0.0,0 STARLINK-3388,1 51131U 22005AD  23300.50439477 -.00000977  00000-0 -43254-4 0  9994,2 51131  53.2162 218.6008 0002033  83.5279 276.5944 15.08836902 99387,6917.89,95.438,541.161,538.348,0.0
51131.0,STARLINK-3388,PAYLOAD,2023-10-28 11:57:06,15.08839326,0.0001807,53.218,214.1378,86.3437,273.7762,2.9612e-05,1.83e-06,0.0,0 STARLINK-3388,1 51131U 22005AD  23301.49799739  .00000183  00000-0  29612-4 0  9992,2 51131  53.2180 214.1378 0001807  86.3437 273.7762 15.08839326 98416,6917.882,95.438,540.998,538.497,0.0
51131.0,STARLINK-3388,PAYLOAD,2023-10-28 21:29:25,15.08845293,0.0001573,53.217,212.3531,92.5421,267.5752,0.00014897,2.084e-05,0.0,0 STARLINK-3388,1 51131U 22005AD  23301.89543451  .00002084  00000-0  14897-3 0  9994,2 51131  53.2170 212.3531 0001573  92.5421 267.5752 15.08845293 98474,6917.864,95.437,540.817,538.641,0.0
51131.0,STARLINK-3388,PAYLOAD,2023-10-29 03:50:57,15.08855367,0.0001702,53.2166,211.1627,97.4257,262.6929,0.00063251,9.797e-05,0.0,0 STARLINK-3388,1 51131U 22005AD  23302.16039303  .00009797  00000-0  63251-3 0  9997,2 51131  53.2166 211.1627 0001702  97.4257 262.6929 15.08855367 99631,6917.833,95.437,540.876,538.521,0.0
51131.0,STARLINK-3388,PAYLOAD,2023-10-29 22:55:35,15.0884925,0.0001547,53.2168,207.5964,94.605,265.5119,0.00033612,5.067e-05,0.0,0 STARLINK-3388,1 51131U 22005AD  23302.95527497  .00005067  00000-0  33612-3 0  9994,2 51131  53.2168 207.5964 0001547  94.6050 265.5119 15.08849250 98639,6917.852,95.437,540.787,538.647,0.0
51131.0,STARLINK-3388,PAYLOAD,2023-10-30 03:41:44,15.08855735,0.0001504,53.2169,206.7037,100.1581,259.9581,0.00063707,9.87e-05,0.0,0 STARLINK-3388,1 51131U 22005AD  23303.15399249  .00009870  00000-0  63707-3 0  9993,2 51131  53.2169 206.7037 0001504 100.1581 259.9581 15.08855735 99789,6917.832,95.437,540.738,538.657,0.0
51131.0,STARLINK-3388,PAYLOAD,2023-10-30 21:10:59,15.08837134,0.0001548,53.2159,203.4335,114.1695,245.946,0.00075539,0.00011754,0.0,0 STARLINK-3388,1 51131U 22005AD  23303.88263882  .00011754  00000-0  75539-3 0  9996,2 51131  53.2159 203.4335 0001548 114.1695 245.9460 15.08837134 99898,6917.889,95.438,540.825,538.683,0.0
51131.0,STARLINK-3388,PAYLOAD,2023-10-31 09:54:05,15.08844722,0.0001049,53.2148,201.0569,107.4666,252.6441,0.0007124,0.0001107,0.0,0 STARLINK-3388,1 51131U 22005AD  23304.41255957  .00011070  00000-0  71240-3 0  9996,2 51131  53.2148 201.0569 0001049 107.4666 252.6441 15.08844722 98858,6917.866,95.437,540.457,539.005,0.0
51131.0,STARLINK-3388,PAYLOAD,2023-10-31 21:01:47,15.0883945,0.0001429,53.2165,198.9779,112.4677,247.6467,0.00024297,3.581e-05,0.0,0 STARLINK-3388,1 51131U 22005AD  23304.87624196  .00003581  00000-0  24297-3 0  9999,2 51131  53.2165 198.9779 0001429 112.4677 247.6467 15.08839450100043,6917.882,95.438,540.736,538.759,0.0
51131.0,STARLINK-3388,PAYLOAD,2023-10-31 22:37:10,15.08842258,0.0001423,53.2166,198.6809,110.8854,249.2291,0.00021127,3.076e-05,0.0,0 STARLINK-3388,1 51131U 22005AD  23304.94248086  .00003076  00000-0  21127-3 0  9995,2 51131  53.2166 198.6809 0001423 110.8854 249.2291 15.08842258 98935,6917.873,95.437,540.723,538.754,0.0
51131.0,STARLINK-3388,PAYLOAD,2023-11-01 09:44:52,15.08843765,0.000136,53.2169,196.5991,106.6348,253.4793,0.00026191,3.883e-05,0.0,0 STARLINK-3388,1 51131U 22005AD  23305.40616075  .00003883  00000-0  26191-3 0  9996,2 51131  53.2169 196.5991 0001360 106.6348 253.4793 15.08843765 99005,6917.869,95.437,540.675,538.793,0.0
51131.0,STARLINK-3388,PAYLOAD,2023-11-01 22:27:57,15.08839472,0.0001437,53.2166,194.2204,109.1447,250.9701,9.0135e-05,1.147e-05,0.0,0 STARLINK-3388,1 51131U 22005AD  23305.93608210  .00001147  00000-0  90135-4 0  9997,2 51131  53.2166 194.2204 0001437 109.1447 250.9701 15.08839472 99086,6917.882,95.438,540.741,538.753,0.0
51131.0,STARLINK-3388,PAYLOAD,2023-11-02 01:38:43,15.0884372,0.0001563,53.2165,193.6226,96.8979,263.2191,0.0001844,2.648e-05,0.0,0 STARLINK-3388,1 51131U 22005AD  23306.06856114  .00002648  00000-0  18440-3 0  9995,2 51131  53.2165 193.6226 0001563  96.8979 263.2191 15.08843720100224,6917.869,95.437,540.815,538.653,0.0
51131.0,STARLINK-3388,PAYLOAD,2023-11-02 09:35:39,15.08843646,0.0001558,53.2164,192.1357,87.0612,273.0558,0.00014906,2.085e-05,0.0,0 STARLINK-3388,1 51131U 22005AD  23306.39976127  .00002085  00000-0  14906-3 0  9996,2 51131  53.2164 192.1357 0001558  87.0612 273.0558 15.08843646 99154,6917.869,95.437,540.812,538.656,0.0
51131.0,STARLINK-3388,PAYLOAD,2023-11-02 22:18:44,15.08842614,0.0001712,53.2172,189.7564,87.9058,272.2131,0.00010289,1.35e-05,0.0,0 STARLINK-3388,1 51131U 22005AD  23306.92968184  .00001350  00000-0  10289-3 0  9993,2 51131  53.2172 189.7564 0001712  87.9058 272.2131 15.08842614 99231,6917.872,95.437,540.922,538.553,0.0
